ONEWEB-0045             
1 45151U 20008W   25123.22108701  .00000167  00000+0  43475-3 0  9999
2 45151  87.8804 102.7513 0001925  82.7958 277.3389 13.11416895257459
ONEWEB-0047             
1 45152U 20008X   25122.95663478  .00000023  00000+0  29443-4 0  9997
2 45152  87.8796 118.0610 0002027  85.8795 274.2564 13.10375711254475
ONEWEB-0048             
1 45153U 20008Y   25123.48614309 -.00000201  00000+0 -61274-3 0  9993
2 45153  87.8798 117.9780 0002056  86.8716 273.2647 13.10374088254916
ONEWEB-0049             
1 45154U 20008Z   25123.03049433 -.00000031  00000+0 -12403-3 0  9996
2 45154  87.8802 118.0607 0002538  90.7903 269.3515 13.10378418255091
ONEWEB-0051             
1 45155U 20008AA  25123.21940663  .00000147  00000+0  37760-3 0  9991
2 45155  87.8805 102.7950 0001979  88.5758 271.5597 13.11417235258132
ONEWEB-0052             
1 45156U 20008AB  25123.02551829 -.00000219  00000+0 -66363-3 0  9996
2 45156  87.8793 118.0080 0002607  88.2444 271.8982 13.10375382254986
ONEWEB-0053             
1 45157U 20008AC  25123.23715200 -.00000514  00000+0 -15087-2 0  9999
2 45157  87.8792 118.0264 0001937  77.9526 282.1818 13.10371291254989
ONEWEB-0054             
1 45158U 20008AD  25123.04296227  .00000561  00000+0  15716-2 0  9991
2 45158  87.8791 118.0404 0002060  90.1000 270.0364 13.10374915255076
